{
  "norad_id": 61622,
  "name": "STARLINK-32364",
  "history": [
    {
      "epoch": "2026-04-15T20:48:31.990752Z",
      "apogee_km": 483.73665481866374,
      "perigee_km": 482.3534405178543,
      "latitude_deg": 2.5854775649630618e-05,
      "longitude_deg": 148.26648678426565,
      "height_km": 482.88403801620365,
      "semi_major_axis_km": 6861.182047668259,
      "eccentricity": 0.0001008,
      "inclination_deg": 43.0034,
      "raan_deg": 304.4227,
      "arg_perigee_deg": 264.8351,
      "mean_anomaly_deg": 95.2386,
      "mean_motion_rev_day": 15.27581352
    },
    {
      "epoch": "2026-04-16T14:04:15.775680Z",
      "apogee_km": 483.8433612698136,
      "perigee_km": 482.3023335380867,
      "latitude_deg": 2.1513448886584574e-06,
      "longitude_deg": -115.436606138666,
      "height_km": 482.8399391027405,
      "semi_major_axis_km": 6861.209847403949,
      "eccentricity": 0.0001123,
      "inclination_deg": 43.0034,
      "raan_deg": 300.361,
      "arg_perigee_deg": 270.7255,
      "mean_anomaly_deg": 89.3468,
      "mean_motion_rev_day": 15.27572068
    },
    {
      "epoch": "2026-04-17T21:27:23.265792Z",
      "apogee_km": 483.77087809030854,
      "perigee_km": 482.3506101572748,
      "latitude_deg": -2.435473330198573e-05,
      "longitude_deg": 125.1071054651616,
      "height_km": 482.88850840492114,
      "semi_major_axis_km": 6861.197744123791,
      "eccentricity": 0.0001035,
      "inclination_deg": 43.0029,
      "raan_deg": 292.9749,
      "arg_perigee_deg": 265.877,
      "mean_anomaly_deg": 94.1963,
      "mean_motion_rev_day": 15.2757611
    },
    {
      "epoch": "2026-04-18T20:59:43.365408Z",
      "apogee_km": 483.7903541106043,
      "perigee_km": 482.27815196643496,
      "latitude_deg": 2.514083907906183e-05,
      "longitude_deg": 125.51720100689303,
      "height_km": 482.8596829532705,
      "semi_major_axis_km": 6861.171253038519,
      "eccentricity": 0.0001102,
      "inclination_deg": 43.0028,
      "raan_deg": 287.4354,
      "arg_perigee_deg": 266.3085,
      "mean_anomaly_deg": 93.7641,
      "mean_motion_rev_day": 15.27584957
    },
    {
      "epoch": "2026-04-19T20:32:05.547264Z",
      "apogee_km": 483.79215007035145,
      "perigee_km": 482.36913353144155,
      "latitude_deg": -1.3476415536748348e-06,
      "longitude_deg": 125.91971457748578,
      "height_km": 482.7544787991251,
      "semi_major_axis_km": 6861.217641800897,
      "eccentricity": 0.0001037,
      "inclination_deg": 43.0021,
      "raan_deg": 281.8971,
      "arg_perigee_deg": 278.3069,
      "mean_anomaly_deg": 81.7665,
      "mean_motion_rev_day": 15.27569465
    },
    {
      "epoch": "2026-04-20T04:22:52.218912Z",
      "apogee_km": 484.00862157845404,
      "perigee_km": 482.1312581355696,
      "latitude_deg": -2.4872103776300973e-05,
      "longitude_deg": 6.057287711199803,
      "height_km": 482.7160012663626,
      "semi_major_axis_km": 6861.206939857011,
      "eccentricity": 0.00013681,
      "inclination_deg": 43.0023,
      "raan_deg": 280.0514,
      "arg_perigee_deg": 278.0149,
      "mean_anomaly_deg": 82.0547,
      "mean_motion_rev_day": 15.27573039
    },
    {
      "epoch": "2026-04-21T19:36:48.749760Z",
      "apogee_km": 483.73517302372784,
      "perigee_km": 482.49465867734216,
      "latitude_deg": 3.6958252154829224e-05,
      "longitude_deg": 126.72858832624424,
      "height_km": 482.7572001075943,
      "semi_major_axis_km": 6861.251915850535,
      "eccentricity": 9.04e-05,
      "inclination_deg": 43.0023,
      "raan_deg": 270.8194,
      "arg_perigee_deg": 282.4996,
      "mean_anomaly_deg": 77.5755,
      "mean_motion_rev_day": 15.27558019
    },
    {
      "epoch": "2026-04-22T17:34:58.610784Z",
      "apogee_km": 483.8077183208088,
      "perigee_km": 482.26669859358844,
      "latitude_deg": -1.630355490640139e-05,
      "longitude_deg": 151.11449023679702,
      "height_km": 482.2172419441496,
      "semi_major_axis_km": 6861.174208457198,
      "eccentricity": 0.0001123,
      "inclination_deg": 43.0075,
      "raan_deg": 265.6487,
      "arg_perigee_deg": 320.7863,
      "mean_anomaly_deg": 39.2907,
      "mean_motion_rev_day": 15.2758397
    },
    {
      "epoch": "2026-04-23T02:59:54.486816Z",
      "apogee_km": 484.067032513557,
      "perigee_km": 482.03063255845973,
      "latitude_deg": 1.6090714807173593e-05,
      "longitude_deg": 7.279725393457704,
      "height_km": 482.8720772112089,
      "semi_major_axis_km": 6861.185832536008,
      "eccentricity": 0.0001484,
      "inclination_deg": 43.0025,
      "raan_deg": 263.4334,
      "arg_perigee_deg": 267.3991,
      "mean_anomaly_deg": 92.6691,
      "mean_motion_rev_day": 15.27580088
    },
    {
      "epoch": "2026-04-24T10:23:02.652576Z",
      "apogee_km": 483.6511872499159,
      "perigee_km": 482.4600842083528,
      "latitude_deg": 4.118596134510477e-05,
      "longitude_deg": -112.17953464750947,
      "height_km": 482.7908796300249,
      "semi_major_axis_km": 6861.192635729134,
      "eccentricity": 8.68e-05,
      "inclination_deg": 43.0025,
      "raan_deg": 256.0471,
      "arg_perigee_deg": 273.9742,
      "mean_anomaly_deg": 86.1011,
      "mean_motion_rev_day": 15.27577816
    }
  ]
}